0 DELTA 1 DEB
1 07170U 73086EJ  13283.48711744  .00000152  00000-0  70401-3 0  9771
2 07170 101.7080 279.5581 0101563 194.6059 320.6519 12.95211385862066
0 DELTA 1 DEB
1 07170U 73086EJ  13285.49481578 -.00000041  00000-0  32312-4 0  9782
2 07170 101.7076 281.6962 0101636 190.3395 322.1437 12.95213463862329
0 DELTA 1 DEB
1 07170U 73086EJ  13287.49734473  .00000045  00000-0  32940-3 0  9799
2 07170 101.7073 283.8285 0101692 186.1173 299.5145 12.95213825862580
0 DELTA 1 DEB
1 07170U 73086EJ  13289.58154831  .00000198  00000-0  86375-3 0  9807
2 07170 101.7074 286.0477 0101731 181.7394 297.7124 12.95213803862852
0 DELTA 1 DEB
1 07170U 73086EJ  13291.82227205  .00000418  00000-0  16250-2 0  9813
2 07170 101.7077 288.4335 0101779 177.0194 305.7465 12.95212607863144
0 DELTA 1 DEB
1 07170U 73086EJ  13293.83048763  .00000650  00000-0  24302-2 0  9822
2 07170 101.7081 290.5717 0101804 172.7925 309.6370 12.95212779863407
0 DELTA 1 DEB
1 07170U 73086EJ  13295.91441100  .00000789  00000-0  29119-2 0  9830
2 07170 101.7082 292.7907 0101813 168.3838 306.5604 12.95215065863673
